{
  "type": "FeatureCollection",
  "features": [
    {
      "type": "Feature",
      "properties": {
        "norad_id": 59600,
        "name": "GSAT0227 (GALILEO 30)",
        "group": "gnss",
        "lat": 21.914997530728602,
        "lon": 122.51146049634556,
        "alt_km": 23219.199152992554,
        "timestamp": "2025-12-17T04:57:44.614194+00:00",
        "meta_object_name": "GSAT0227 (GALILEO 30)",
        "meta_object_id": "2024-079C",
        "meta_epoch": "2025-12-15T23:44:48.318432",
        "meta_mean_motion": 1.70474874,
        "meta_eccentricity": 0.00030998,
        "meta_inclination": 54.9987,
        "meta_ra_of_asc_node": 106.2033,
        "meta_arg_of_pericenter": 115.4904,
        "meta_mean_anomaly": 244.5024,
        "meta_ephemeris_type": 0,
        "meta_classification_type": "U",
        "meta_norad_cat_id": 59600,
        "meta_element_set_no": 999,
        "meta_rev_at_epoch": 1024,
        "meta_bstar": 0,
        "meta_mean_motion_dot": -9e-08,
        "meta_mean_motion_ddot": 0,
        "tle_line1": "1 59600U 24079C   25349.98944813 -.00000009  00000+0  00000+0 0  9999",
        "tle_line2": "2 59600  54.9987 106.2033 0003099 115.4904 244.5024  1.70474874 10244"
      },
      "geometry": {
        "type": "Point",
        "coordinates": [
          122.51146049634556,
          21.914997530728602
        ]
      }
    },
    {
      "type": "Feature",
      "properties": {
        "norad_id": 61182,
        "name": "GSAT0232 (GALILEO 32)",
        "group": "gnss",
        "lat": -33.02473548973651,
        "lon": 73.12643933812461,
        "alt_km": 23220.877767291207,
        "timestamp": "2025-12-17T04:57:44.614204+00:00",
        "meta_object_name": "GSAT0232 (GALILEO 32)",
        "meta_object_id": "2024-167A",
        "meta_epoch": "2025-12-15T09:09:10.050912",
        "meta_mean_motion": 1.70473627,
        "meta_eccentricity": 0.00018812,
        "meta_inclination": 55.2399,
        "meta_ra_of_asc_node": 226.3583,
        "meta_arg_of_pericenter": 210.2547,
        "meta_mean_anomaly": 331.0661,
        "meta_ephemeris_type": 0,
        "meta_classification_type": "U",
        "meta_norad_cat_id": 61182,
        "meta_element_set_no": 999,
        "meta_rev_at_epoch": 774,
        "meta_bstar": 0,
        "meta_mean_motion_dot": 4.1e-07,
        "meta_mean_motion_ddot": 0,
        "tle_line1": "1 61182U 24167A   25349.38136633  .00000041  00000+0  00000+0 0  9997",
        "tle_line2": "2 61182  55.2399 226.3583 0001881 210.2547 331.0661  1.70473627  7746"
      },
      "geometry": {
        "type": "Point",
        "coordinates": [
          73.12643933812461,
          -33.02473548973651
        ]
      }
    },
    {
      "type": "Feature",
      "properties": {
        "norad_id": 61183,
        "name": "GSAT0226 (GALILEO 31)",
        "group": "gnss",
        "lat": -20.981728595084913,
        "lon": -149.10880435737624,
        "alt_km": 23226.95494978169,
        "timestamp": "2025-12-17T04:57:44.614214+00:00",
        "meta_object_name": "GSAT0226 (GALILEO 31)",
        "meta_object_id": "2024-167B",
        "meta_epoch": "2025-12-12T20:26:08.685024",
        "meta_mean_motion": 1.70473602,
        "meta_eccentricity": 8.42e-05,
        "meta_inclination": 55.2391,
        "meta_ra_of_asc_node": 226.433,
        "meta_arg_of_pericenter": 113.0334,
        "meta_mean_anomaly": 68.3038,
        "meta_ephemeris_type": 0,
        "meta_classification_type": "U",
        "meta_norad_cat_id": 61183,
        "meta_element_set_no": 999,
        "meta_rev_at_epoch": 767,
        "meta_bstar": 0,
        "meta_mean_motion_dot": 1.9e-07,
        "meta_mean_motion_ddot": 0,
        "tle_line1": "1 61183U 24167B   25346.85148941  .00000019  00000+0  00000+0 0  9997",
        "tle_line2": "2 61183  55.2391 226.4330 0000842 113.0334  68.3038  1.70473602  7673"
      },
      "geometry": {
        "type": "Point",
        "coordinates": [
          -149.10880435737624,
          -20.981728595084913
        ]
      }
    },
    {
      "type": "Feature",
      "properties": {
        "norad_id": 61186,
        "name": "BEIDOU-3 M25 (C47)",
        "group": "gnss",
        "lat": -23.853092606543708,
        "lon": 146.82815465293166,
        "alt_km": 21530.99645173424,
        "timestamp": "2025-12-17T04:57:44.614224+00:00",
        "meta_object_name": "BEIDOU-3 M25 (C47)",
        "meta_object_id": "2024-168B",
        "meta_epoch": "2025-12-16T08:41:42.146304",
        "meta_mean_motion": 1.86230282,
        "meta_eccentricity": 0.00054361,
        "meta_inclination": 54.6387,
        "meta_ra_of_asc_node": 308.5944,
        "meta_arg_of_pericenter": 298.6165,
        "meta_mean_anomaly": 64.9369,
        "meta_ephemeris_type": 0,
        "meta_classification_type": "U",
        "meta_norad_cat_id": 61186,
        "meta_element_set_no": 999,
        "meta_rev_at_epoch": 838,
        "meta_bstar": 0,
        "meta_mean_motion_dot": -9.6e-07,
        "meta_mean_motion_ddot": 0,
        "tle_line1": "1 61186U 24168B   25350.36229336 -.00000096  00000+0  00000+0 0  9996",
        "tle_line2": "2 61186  54.6387 308.5944 0005436 298.6165  64.9369  1.86230282  8383"
      },
      "geometry": {
        "type": "Point",
        "coordinates": [
          146.82815465293166,
          -23.853092606543708
        ]
      }
    },
    {
      "type": "Feature",
      "properties": {
        "norad_id": 61187,
        "name": "BEIDOU-3 M27 (C49)",
        "group": "gnss",
        "lat": -12.433830997724941,
        "lon": -60.476957448875645,
        "alt_km": 21523.05190229531,
        "timestamp": "2025-12-17T04:57:44.614235+00:00",
        "meta_object_name": "BEIDOU-3 M27 (C49)",
        "meta_object_id": "2024-168C",
        "meta_epoch": "2025-12-16T16:40:41.983104",
        "meta_mean_motion": 1.86230434,
        "meta_eccentricity": 0.00024841,
        "meta_inclination": 54.6339,
        "meta_ra_of_asc_node": 308.5665,
        "meta_arg_of_pericenter": 338.791,
        "meta_mean_anomaly": 22.7228,
        "meta_ephemeris_type": 0,
        "meta_classification_type": "U",
        "meta_norad_cat_id": 61187,
        "meta_element_set_no": 999,
        "meta_rev_at_epoch": 586,
        "meta_bstar": 0,
        "meta_mean_motion_dot": -9.5e-07,
        "meta_mean_motion_ddot": 0,
        "tle_line1": "1 61187U 24168C   25350.69493036 -.00000095  00000+0  00000+0 0  9992",
        "tle_line2": "2 61187  54.6339 308.5665 0002484 338.7910  22.7228  1.86230434  5860"
      },
      "geometry": {
        "type": "Point",
        "coordinates": [
          -60.476957448875645,
          -12.433830997724941
        ]
      }
    },
    {
      "type": "Feature",
      "properties": {
        "norad_id": 62339,
        "name": "GPS BIII-7  (PRN 01)",
        "group": "gnss",
        "lat": -48.35669882994893,
        "lon": -146.24027740802774,
        "alt_km": 20192.56668666775,
        "timestamp": "2025-12-17T04:57:44.614245+00:00",
        "meta_object_name": "GPS BIII-7  (PRN 01)",
        "meta_object_id": "2024-242A",
        "meta_epoch": "2025-12-16T08:50:11.332608",
        "meta_mean_motion": 2.00568131,
        "meta_eccentricity": 0.00124404,
        "meta_inclination": 54.9226,
        "meta_ra_of_asc_node": 341.593,
        "meta_arg_of_pericenter": 345.4157,
        "meta_mean_anomaly": 15.1615,
        "meta_ephemeris_type": 0,
        "meta_classification_type": "U",
        "meta_norad_cat_id": 62339,
        "meta_element_set_no": 999,
        "meta_rev_at_epoch": 759,
        "meta_bstar": 0,
        "meta_mean_motion_dot": -9e-07,
        "meta_mean_motion_ddot": 0,
        "tle_line1": "1 62339U 24242A   25350.36818672 -.00000090  00000+0  00000+0 0  9991",
        "tle_line2": "2 62339  54.9226 341.5930 0012440 345.4157  15.1615  2.00568131  7594"
      },
      "geometry": {
        "type": "Point",
        "coordinates": [
          -146.24027740802774,
          -48.35669882994893
        ]
      }
    },
    {
      "type": "Feature",
      "properties": {
        "norad_id": 62850,
        "name": "NVS-02 (IRNSS-1K)",
        "group": "gnss",
        "lat": 5.192204670135428,
        "lon": 132.32496478543123,
        "alt_km": 18296.38725340146,
        "timestamp": "2025-12-17T04:57:44.614256+00:00",
        "meta_object_name": "NVS-02 (IRNSS-1K)",
        "meta_object_id": "2025-020A",
        "meta_epoch": "2025-12-16T16:24:46.364544",
        "meta_mean_motion": 2.17598367,
        "meta_eccentricity": 0.734747,
        "meta_inclination": 20.9733,
        "meta_ra_of_asc_node": 326.2318,
        "meta_arg_of_pericenter": 28.7923,
        "meta_mean_anomaly": 356.9482,
        "meta_ephemeris_type": 0,
        "meta_classification_type": "U",
        "meta_norad_cat_id": 62850,
        "meta_element_set_no": 999,
        "meta_rev_at_epoch": 700,
        "meta_bstar": 0.00026956761,
        "meta_mean_motion_dot": 5.1e-06,
        "meta_mean_motion_ddot": 0,
        "tle_line1": "1 62850U 25020A   25350.68386996  .00000510  00000+0  26957-3 0  9997",
        "tle_line2": "2 62850  20.9733 326.2318 7347470  28.7923 356.9482  2.17598367  7007"
      },
      "geometry": {
        "type": "Point",
        "coordinates": [
          132.32496478543123,
          5.192204670135428
        ]
      }
    }
  ]
}